NORAD_CAT_ID,OBJECT_NAME,OBJECT_TYPE,EPOCH,MEAN_MOTION,ECCENTRICITY,INCLINATION,RA_OF_ASC_NODE,ARG_OF_PERICENTER,MEAN_ANOMALY,BSTAR,MEAN_MOTION_DOT,MEAN_MOTION_DDOT,TLE_LINE0,TLE_LINE1,TLE_LINE2,SEMIMAJOR_AXIS,PERIOD,APOGEE,PERIGEE,DECAYED
53152.0,STARLINK-4045,PAYLOAD,2023-09-15 05:54:53,15.08842632,0.0001533,53.2161,273.3028,78.3763,281.7401,0.00012731,1.739e-05,0.0,0 STARLINK-4045,1 53152U 22083W   23258.24645143  .00001739  00000-0  12731-3 0  9997,2 53152  53.2161 273.3028 0001533  78.3763 281.7401 15.08842632 65145,6917.872,95.437,540.798,538.677,0.0
53152.0,STARLINK-4045,PAYLOAD,2023-09-15 10:41:02,15.08844957,0.000149,53.216,272.4095,102.1681,257.9478,0.0001553,2.185e-05,0.0,0 STARLINK-4045,1 53152U 22083W   23258.44516912  .00002185  00000-0  15530-3 0  9996,2 53152  53.2160 272.4095 0001490 102.1681 257.9478 15.08844957 64549,6917.865,95.437,540.761,538.699,0.0
53152.0,STARLINK-4045,PAYLOAD,2023-09-16 07:21:03,15.08848988,0.0001512,53.2158,268.5448,84.1796,275.9369,0.00038158,5.792e-05,0.0,0 STARLINK-4045,1 53152U 22083W   23259.30629072  .00005792  00000-0  38158-3 0  9992,2 53152  53.2158 268.5448 0001512  84.1796 275.9369 15.08848988 65307,6917.853,95.437,540.764,538.672,0.0
53152.0,STARLINK-4045,PAYLOAD,2023-09-16 10:31:49,15.08852425,0.0001518,53.2155,267.9495,86.3236,273.793,0.00039052,5.935e-05,0.0,0 STARLINK-4045,1 53152U 22083W   23259.43876887  .00005935  00000-0  39052-3 0  9997,2 53152  53.2155 267.9495 0001518  86.3236 273.7930 15.08852425 64690,6917.842,95.437,540.758,538.657,0.0
53152.0,STARLINK-4045,PAYLOAD,2023-09-17 07:11:48,15.08883603,0.0001651,53.2158,264.0843,87.972,272.1461,0.00075445,0.00011754,0.0,0 STARLINK-4045,1 53152U 22083W   23260.29986983  .00011754  00000-0  75445-3 0  9994,2 53152  53.2158 264.0843 0001651  87.9720 272.1461 15.08883603 65450,6917.747,95.435,540.754,538.47,0.0
53152.0,STARLINK-4045,PAYLOAD,2023-09-17 16:44:07,15.08864548,0.0001701,53.216,262.2982,84.6199,275.4987,0.00028302,4.222e-05,0.0,0 STARLINK-4045,1 53152U 22083W   23260.69731074  .00004222  00000-0  28302-3 0  9999,2 53152  53.2160 262.2982 0001701  84.6199 275.4987 15.08864548 65510,6917.805,95.436,540.847,538.494,0.0
53152.0,STARLINK-4045,PAYLOAD,2023-09-18 00:41:03,15.0883892,0.0001521,53.2155,260.8131,95.4061,264.7105,-0.00029742,-5.018e-05,0.0,0 STARLINK-4045,1 53152U 22083W   23261.02851621 -.00005018  00000-0 -29742-3 0  9993,2 53152  53.2155 260.8131 0001521  95.4061 264.7105 15.08838920 65565,6917.884,95.438,540.801,538.696,0.0
53152.0,STARLINK-4045,PAYLOAD,2023-09-18 05:27:13,15.08838156,0.0001462,53.2159,259.9208,93.3279,266.788,-0.00027645,-4.685e-05,0.0,0 STARLINK-4045,1 53152U 22083W   23261.22723532 -.00004685  00000-0 -27645-3 0  9993,2 53152  53.2159 259.9208 0001462  93.3279 266.7880 15.08838156 64961,6917.886,95.438,540.762,538.74,0.0
53152.0,STARLINK-4045,PAYLOAD,2023-09-18 16:34:55,15.08831251,0.0001296,53.2154,257.8387,93.032,267.082,0.00079319,0.00012355,0.0,0 STARLINK-4045,1 53152U 22083W   23261.69092220  .00012355  00000-0  79319-3 0  9993,2 53152  53.2154 257.8387 0001296  93.0320 267.0820 15.08831251 65036,6917.907,95.438,540.669,538.876,0.0
53152.0,STARLINK-4045,PAYLOAD,2023-09-19 08:28:47,15.08843064,0.0001444,53.2163,254.8668,100.992,259.1234,0.00081773,0.00012751,0.0,0 STARLINK-4045,1 53152U 22083W   23262.35332525  .00012751  00000-0  81773-3 0  9999,2 53152  53.2163 254.8668 0001444 100.9920 259.1234 15.08843064 65760,6917.871,95.437,540.735,538.737,0.0
53152.0,STARLINK-4045,PAYLOAD,2023-09-19 16:25:43,15.08841004,0.000134,53.2157,253.381,95.1317,264.9828,0.00047266,7.243e-05,0.0,0 STARLINK-4045,1 53152U 22083W   23262.68452662  .00007243  00000-0  47266-3 0  9999,2 53152  53.2157 253.3810 0001340  95.1317 264.9828 15.08841004 65817,6917.877,95.437,540.669,538.815,0.0
53152.0,STARLINK-4045,PAYLOAD,2023-09-20 05:08:48,15.08831256,0.0001701,53.2164,251.0023,92.3596,267.7591,0.00012484,1.699e-05,0.0,0 STARLINK-4045,1 53152U 22083W   23263.21445350  .00001699  00000-0  12484-3 0  9998,2 53152  53.2164 251.0023 0001701  92.3596 267.7591 15.08831256 65899,6917.907,95.438,540.949,538.595,0.0
53152.0,STARLINK-4045,PAYLOAD,2023-09-20 08:19:35,15.08830539,0.0001666,53.2165,250.4071,92.7521,267.3662,0.00012534,1.707e-05,0.0,0 STARLINK-4045,1 53152U 22083W   23263.34693481  .00001707  00000-0  12534-3 0  9998,2 53152  53.2165 250.4071 0001666  92.7521 267.3662 15.08830539 65289,6917.909,95.438,540.927,538.622,0.0
53152.0,STARLINK-4045,PAYLOAD,2023-09-20 16:16:31,15.08829477,0.0001601,53.2159,248.9198,86.9789,273.1387,7.241e-05,8.64e-06,0.0,0 STARLINK-4045,1 53152U 22083W   23263.67813715  .00000864  00000-0  72410-4 0  9991,2 53152  53.2159 248.9198 0001601  86.9789 273.1387 15.08829477 65338,6917.913,95.438,540.885,538.67,0.0
53152.0,STARLINK-4045,PAYLOAD,2023-09-21 08:10:22,15.0884747,0.0001607,53.2153,245.9457,84.6156,275.5019,0.00048197,7.392e-05,0.0,0 STARLINK-4045,1 53152U 22083W   23264.34053511  .00007392  00000-0  48197-3 0  9993,2 53152  53.2153 245.9457 0001607  84.6156 275.5019 15.08847470 66068,6917.858,95.437,540.834,538.611,0.0
53152.0,STARLINK-4045,PAYLOAD,2023-09-21 16:07:18,15.08842036,0.0001475,53.2147,244.4574,89.9952,270.1209,0.00032102,4.825e-05,0.0,0 STARLINK-4045,1 53152U 22083W   23264.67173637  .00004825  00000-0  32102-3 0  9998,2 53152  53.2147 244.4574 0001475  89.9952 270.1209 15.08842036 66111,6917.874,95.437,540.76,538.719,0.0
53152.0,STARLINK-4045,PAYLOAD,2023-09-22 04:50:22,15.08845337,0.0001422,53.2149,242.0777,96.015,264.1004,0.00027556,4.101e-05,0.0,0 STARLINK-4045,1 53152U 22083W   23265.20165501  .00004101  00000-0  27556-3 0  9993,2 53152  53.2149 242.0777 0001422  96.0150 264.1004 15.08845337 65564,6917.864,95.437,540.713,538.745,0.0
53152.0,STARLINK-4045,PAYLOAD,2023-09-22 15:58:05,15.08841935,0.0001415,53.2145,239.9959,96.5664,263.5489,0.00015807,2.229e-05,0.0,0 STARLINK-4045,1 53152U 22083W   23265.66533609  .00002229  00000-0  15807-3 0  9996,2 53152  53.2145 239.9959 0001415  96.5664 263.5489 15.08841935 66262,6917.874,95.437,540.718,538.761,0.0
53152.0,STARLINK-4045,PAYLOAD,2023-09-22 22:19:37,15.08841217,0.0001508,53.2147,238.807,91.2187,268.8978,0.00015664,2.206e-05,0.0,0 STARLINK-4045,1 53152U 22083W   23265.93029782  .00002206  00000-0  15664-3 0  9994,2 53152  53.2147 238.8070 0001508  91.2187 268.8978 15.08841217 65679,6917.877,95.437,540.785,538.698,0.0
53152.0,STARLINK-4045,PAYLOAD,2023-09-23 04:41:09,15.08846573,0.0001549,53.216,237.6179,94.6909,265.426,0.00010055,1.313e-05,0.0,0 STARLINK-4045,1 53152U 22083W   23266.19525459  .00001313  00000-0  10055-3 0  9992,2 53152  53.2160 237.6179 0001549  94.6909 265.4260 15.08846573 65717,6917.86,95.437,540.797,538.654,0.0
53152.0,STARLINK-4045,PAYLOAD,2023-09-24 04:31:57,15.08843988,0.0001552,53.2164,233.1585,91.4012,268.7158,9.8585e-05,1.281e-05,0.0,0 STARLINK-4045,1 53152U 22083W   23267.18885477  .00001281  00000-0  98585-4 0  9990,2 53152  53.2164 233.1585 0001552  91.4012 268.7158 15.08843988 66492,6917.868,95.437,540.807,538.66,0.0
53152.0,STARLINK-4045,PAYLOAD,2023-09-24 07:42:43,15.08846127,0.0001595,53.2168,232.563,95.1143,265.0031,0.00015066,2.111e-05,0.0,0 STARLINK-4045,1 53152U 22083W   23267.32133330  .00002111  00000-0  15066-3 0  9995,2 53152  53.2168 232.5630 0001595  95.1143 265.0031 15.08846127 65883,6917.862,95.437,540.83,538.623,0.0
53152.0,STARLINK-4045,PAYLOAD,2023-09-25 02:47:21,15.08840107,0.00015,53.2153,228.9918,95.1422,264.9741,7.9014e-05,9.7e-06,0.0,0 STARLINK-4045,1 53152U 22083W   23268.11621689  .00000970  00000-0  79014-4 0  9997,2 53152  53.2153 228.9918 0001500  95.1422 264.9741 15.08840107 66633,6917.88,95.438,540.783,538.707,0.0
53152.0,STARLINK-4045,PAYLOAD,2023-09-25 04:22:43,15.08845595,0.000174,53.2172,228.6939,108.3872,251.731,9.7779e-05,1.269e-05,0.0,0 STARLINK-4045,1 53152U 22083W   23268.18245335  .00001269  00000-0  97779-4 0  9994,2 53152  53.2172 228.6939 0001740 108.3872 251.7310 15.08845595 66010,6917.863,95.437,540.932,538.525,0.0
53152.0,STARLINK-4045,PAYLOAD,2023-09-25 21:51:58,15.08851703,0.0001516,53.2162,225.4264,95.7091,264.4074,0.00022399,3.28e-05,0.0,0 STARLINK-4045,1 53152U 22083W   23268.91108917  .00003280  00000-0  22399-3 0  9999,2 53152  53.2162 225.4264 0001516  95.7091 264.4074 15.08851703 66126,6917.845,95.437,540.758,538.661,0.0
53152.0,STARLINK-4045,PAYLOAD,2023-09-26 02:38:07,15.08863658,0.0001593,53.2165,224.535,100.8633,259.2538,0.0004794,7.355e-05,0.0,0 STARLINK-4045,1 53152U 22083W   23269.10980480  .00007355  00000-0  47940-3 0  9990,2 53152  53.2165 224.5350 0001593 100.8633 259.2538 15.08863658 66781,6917.808,95.436,540.775,538.571,0.0
53152.0,STARLINK-4045,PAYLOAD,2023-09-27 04:04:18,15.08835948,0.0001335,53.2164,219.7766,79.7137,280.4005,-7.2227e-05,-1.437e-05,0.0,0 STARLINK-4045,1 53152U 22083W   23270.16965312 -.00001437  00000-0 -72227-4 0  9999,2 53152  53.2164 219.7766 0001335  79.7137 280.4005 15.08835948 66948,6917.893,95.438,540.681,538.834,0.0
53152.0,STARLINK-4045,PAYLOAD,2023-09-27 07:15:04,15.08836724,0.0001348,53.2165,219.182,82.095,278.0195,-5.3059e-05,-1.132e-05,0.0,0 STARLINK-4045,1 53152U 22083W   23270.30213384 -.00001132  00000-0 -53059-4 0  9994,2 53152  53.2165 219.1820 0001348  82.0950 278.0195 15.08836724 66337,6917.89,95.438,540.688,538.823,0.0
53152.0,STARLINK-4045,PAYLOAD,2023-09-27 13:36:37,15.08824244,0.0001194,53.2153,217.993,90.323,269.7899,-0.00024637,-4.205e-05,0.0,0 STARLINK-4045,1 53152U 22083W   23270.56709920 -.00004205  00000-0 -24637-3 0  9991,2 53152  53.2153 217.9930 0001194  90.3230 269.7899 15.08824244 67001,6917.929,95.439,540.62,538.968,0.0
53152.0,STARLINK-4045,PAYLOAD,2023-09-28 03:55:05,15.08830007,0.0001501,53.2164,215.3143,93.2306,266.8857,-0.00016593,-2.927e-05,0.0,0 STARLINK-4045,1 53152U 22083W   23271.16326234 -.00002927  00000-0 -16593-3 0  9992,2 53152  53.2164 215.3143 0001501  93.2306 266.8857 15.08830007 67094,6917.911,95.438,540.814,538.738,0.0
